$$SOE
2461288.500000000, A.D. 2026-Sep-05 00:00:00.0000, 2.483653437756375E+08, 2.620361482440845E+08, 1.720978692195673E+07,
2461295.500000000, A.D. 2026-Sep-12 00:00:00.0000, 2.391912734409724E+08, 2.709466379663324E+08, 1.684291164758620E+07,
2461302.500000000, A.D. 2026-Sep-19 00:00:00.0000, 2.297720566937055E+08, 2.795794524042494E+08, 1.645877455152014E+07,
2461309.500000000, A.D. 2026-Sep-26 00:00:00.0000, 2.201182090139040E+08, 2.879267988299353E+08, 1.605783148391891E+07,
2461316.500000000, A.D. 2026-Oct-03 00:00:00.0000, 2.102405577859370E+08, 2.959814278944429E+08, 1.564056295321861E+07,
2461323.500000000, A.D. 2026-Oct-10 00:00:00.0000, 2.001502053037355E+08, 3.037366480920730E+08, 1.520747234478006E+07,
2461330.500000000, A.D. 2026-Oct-17 00:00:00.0000, 1.898584910755217E+08, 3.111863369951476E+08, 1.475908405475952E+07,
2461337.500000000, A.D. 2026-Oct-24 00:00:00.0000, 1.793769537712473E+08, 3.183249492319173E+08, 1.429594155248557E+07,
2461344.500000000, A.D. 2026-Oct-31 00:00:00.0000, 1.687172932245803E+08, 3.251475211725670E+08, 1.381860537434985E+07,
2461351.500000000, A.D. 2026-Nov-07 00:00:00.0000, 1.578913331315743E+08, 3.316496724631242E+08, 1.332765104144754E+07,
2461358.500000000, A.D. 2026-Nov-14 00:00:00.0000, 1.469109849366259E+08, 3.378276053903576E+08, 1.282366697151098E+07,
2461365.500000000, A.D. 2026-Nov-21 00:00:00.0000, 1.357882113634742E+08, 3.436781028759766E+08, 1.230725262210242E+07,
2461372.500000000, A.D. 2026-Nov-28 00:00:00.0000, 1.245349888303731E+08, 3.491985222307332E+08, 1.177901672588038E+07,
2461379.500000000, A.D. 2026-Dec-05 00:00:00.0000, 1.131632725818590E+08, 3.543867841871318E+08, 1.123957524790429E+07,
2461386.500000000, A.D. 2026-Dec-12 00:00:00.0000, 1.016849648965957E+08, 3.592413605172226E+08, 1.068954931804067E+07,
2461393.500000000, A.D. 2026-Dec-19 00:00:00.0000, 9.011188465023565E+07, 3.637612604483072E+08, 1.012956332478383E+07,
2461400.500000000, A.D. 2026-Dec-26 00:00:00.0000, 7.845573823035860E+07, 3.679460152272350E+08, 9.560243124033675E+06,
2461407.500000000, A.D. 2027-Jan-02 00:00:00.0000, 6.672809219289618E+07, 3.717956608671506E+08, 8.982214331543833E+06,
2461414.500000000, A.D. 2027-Jan-09 00:00:00.0000, 5.494034786328817E+07, 3.753107193225589E+08, 8.396100697855741E+06,
2461421.500000000, A.D. 2027-Jan-16 00:00:00.0000, 4.310371797688110E+07, 3.784921783251899E+08, 7.802522569557399E+06,
2461428.500000000, A.D. 2027-Jan-23 00:00:00.0000, 3.122920543794013E+07, 3.813414700601116E+08, 7.202095434328228E+06,
2461435.500000000, A.D. 2027-Jan-30 00:00:00.0000, 1.932758439431302E+07, 3.838604488465800E+08, 6.595428532202274E+06,
2461442.500000000, A.D. 2027-Feb-06 00:00:00.0000, 7.409384039637931E+06, 3.860513683678648E+08, 5.983123524131060E+06,
2461449.500000000, A.D. 2027-Feb-13 00:00:00.0000, -4.515125348656832E+06, 3.879168598652084E+08, 5.365773360601962E+06,
2461456.500000000, A.D. 2027-Feb-20 00:00:00.0000, -1.643594654521212E+07, 3.894599106855357E+08, 4.743961501970589E+06,
2461463.500000000, A.D. 2027-Feb-27 00:00:00.0000, -2.834336835457021E+07, 3.906838401310810E+08, 4.118261099018872E+06,
2461470.500000000, A.D. 2027-Mar-06 00:00:00.0000, -4.022797449265458E+07, 3.915922746900591E+08, 3.489234012476623E+06,
2461477.500000000, A.D. 2027-Mar-13 00:00:00.0000, -5.208065005605447E+07, 3.921891248425619E+08, 2.857429982640684E+06,
2461484.500000000, A.D. 2027-Mar-20 00:00:00.0000, -6.389258680018429E+07, 3.924785627309998E+08, 2.223385980904102E+06,
2461491.500000000, A.D. 2027-Mar-27 00:00:00.0000, -7.565528712415816E+07, 3.924650002551752E+08, 1.587625675986230E+06,
2461498.500000000, A.D. 2027-Apr-03 00:00:00.0000, -8.736056666382813E+07, 3.921530676400730E+08, 9.506589880913794E+05,
2461505.500000000, A.D. 2027-Apr-10 00:00:00.0000, -9.900055553852741E+07, 3.915475925815570E+08, 3.129817226453125E+05,
2461512.500000000, A.D. 2027-Apr-17 00:00:00.0000, -1.105676983372709E+08, 3.906535800243290E+08, -3.249247244439125E+05,
2461519.500000000, A.D. 2027-Apr-24 00:00:00.0000, -1.220547528728268E+08, 3.894761925658291E+08, -9.625936073536873E+05,
2461526.500000000, A.D. 2027-May-01 00:00:00.0000, -1.334547875104526E+08, 3.880207315577143E+08, -1.599573047013670E+06,
2461533.500000000, A.D. 2027-May-08 00:00:00.0000, -1.447611768685513E+08, 3.862926196865731E+08, -2.235426196010023E+06,
2461540.500000000, A.D. 2027-May-15 00:00:00.0000, -1.559675974896477E+08, 3.842973860123234E+08, -2.869731141800940E+06,
2461547.500000000, A.D. 2027-May-22 00:00:00.0000, -1.670680251402278E+08, 3.820406508874563E+08, -3.502080621822149E+06,
2461554.500000000, A.D. 2027-May-29 00:00:00.0000, -1.780567304744006E+08, 3.795281092900102E+08, -4.132081982648313E+06,
2461561.500000000, A.D. 2027-Jun-05 00:00:00.0000, -1.889282722675802E+08, 3.767655157000349E+08, -4.759357212908894E+06,
2461568.500000000, A.D. 2027-Jun-12 00:00:00.0000, -1.996774903111250E+08, 3.737586709469767E+08, -5.383542835402116E+06,
2461575.500000000, A.D. 2027-Jun-19 00:00:00.0000, -2.102994983749392E+08, 3.705134100798938E+08, -6.004289708767474E+06,
2461582.500000000, A.D. 2027-Jun-26 00:00:00.0000, -2.207896770302267E+08, 3.670355909802929E+08, -6.621262789589405E+06,
2461589.500000000, A.D. 2027-Jul-03 00:00:00.0000, -2.311436662670668E+08, 3.633310837036837E+08, -7.234140870057702E+06,
2461596.500000000, A.D. 2027-Jul-10 00:00:00.0000, -2.413573579313912E+08, 3.594057605336317E+08, -7.842616297338709E+06,
2461603.500000000, A.D. 2027-Jul-17 00:00:00.0000, -2.514268880008814E+08, 3.552654866821250E+08, -8.446394684432074E+06,
2461610.500000000, A.D. 2027-Jul-24 00:00:00.0000, -2.613486285935324E+08, 3.509161115440302E+08, -9.045194635012165E+06,
2461617.500000000, A.D. 2027-Jul-31 00:00:00.0000, -2.711191793419998E+08, 3.463634607096213E+08, -9.638747503460228E+06,
2461624.500000000, A.D. 2027-Aug-07 00:00:00.0000, -2.807353583743255E+08, 3.416133298535392E+08, -1.022679707999307E+07,
2461631.500000000, A.D. 2027-Aug-14 00:00:00.0000, -2.901941952383236E+08, 3.366714802131595E+08, -1.080909901286724E+07,
2461638.500000000, A.D. 2027-Aug-21 00:00:00.0000, -2.994929251821430E+08, 3.315436322575096E+08, -1.138542030125980E+07,
2461645.500000000, A.D. 2027-Aug-28 00:00:00.0000, -3.086289813877336E+08, 3.262354587123067E+08, -1.195553907657203E+07,
2461652.500000000, A.D. 2027-Sep-04 00:00:00.0000, -3.175999863674885E+08, 3.207525794094006E+08, -1.251924436130504E+07,
2461659.500000000, A.D. 2027-Sep-11 00:00:00.0000, -3.264037439440980E+08, 3.151005572703865E+08, -1.307633573401225E+07,
2461666.500000000, A.D. 2027-Sep-18 00:00:00.0000, -3.350382316987303E+08, 3.092848947451112E+08, -1.362662296770607E+07,
2461673.500000000, A.D. 2027-Sep-25 00:00:00.0000, -3.435015936731654E+08, 3.033110305975361E+08, -1.416992567069568E+07,
2461680.500000000, A.D. 2027-Oct-02 00:00:00.0000, -3.517921332627445E+08, 2.971843370368184E+08, -1.470607293588339E+07,
2461687.500000000, A.D. 2027-Oct-09 00:00:00.0000, -3.599083062873906E+08, 2.909101171601514E+08, -1.523490300214928E+07,
2461694.500000000, A.D. 2027-Oct-16 00:00:00.0000, -3.678487141852721E+08, 2.844936026245669E+08, -1.575626293912427E+07,
2461701.500000000, A.D. 2027-Oct-23 00:00:00.0000, -3.756120970751318E+08, 2.779399515152260E+08, -1.627000838050736E+07,
2461708.500000000, A.D. 2027-Oct-30 00:00:00.0000, -3.831973263168880E+08, 2.712542469948394E+08, -1.677600329111509E+07,
2461715.500000000, A.D. 2027-Nov-06 00:00:00.0000, -3.906033977374830E+08, 2.644414978380248E+08, -1.727411956941785E+07,
2461722.500000000, A.D. 2027-Nov-13 00:00:00.0000, -3.978294275103369E+08, 2.575066387525373E+08, -1.776423647388156E+07,
2461729.500000000, A.D. 2027-Nov-20 00:00:00.0000, -4.048746477860655E+08, 2.504545282810518E+08, -1.824624031824487E+07,
2461736.500000000, A.D. 2027-Nov-27 00:00:00.0000, -4.117384004543574E+08, 2.432899472261163E+08, -1.872002434167887E+07,
2461743.500000000, A.D. 2027-Dec-04 00:00:00.0000, -4.184201310600867E+08, 2.360175984918585E+08, -1.918548849375229E+07,
2461750.500000000, A.D. 2027-Dec-11 00:00:00.0000, -4.249193834233214E+08, 2.286421073613059E+08, -1.964253916284324E+07,
2461757.500000000, A.D. 2027-Dec-18 00:00:00.0000, -4.312357946852934E+08, 2.211680218540549E+08, -2.009108890100076E+07,
2461764.500000000, A.D. 2027-Dec-25 00:00:00.0000, -4.373690906245223E+08, 2.135998131464207E+08, -2.053105615928897E+07,
2461771.500000000, A.D. 2028-Jan-01 00:00:00.0000, -4.433190811975871E+08, 2.059418760538605E+08, -2.096236503609764E+07,
$$EOE